{"fetched_at":"2026-07-08T07:03:34.892Z","source":"https://celestrak.org/NORAD/elements/gp.php?GROUP=oneweb&FORMAT=JSON","constellation":"oneweb","records":[{"OBJECT_NAME":"ONEWEB-0120","OBJECT_ID":"2020-100J","EPOCH":"2026-07-07T10:21:49.775904","CLASSIFICATION_TYPE":"U","MEAN_MOTION":13.12441722,"ECCENTRICITY":0.00020357,"INCLINATION":87.8953,"RA_OF_ASC_NODE":346.6435,"ARG_OF_PERICENTER":96.9652,"MEAN_ANOMALY":263.1708,"EPHEMERIS_TYPE":0,"NORAD_CAT_ID":47266,"ELEMENT_SET_NO":999,"REV_AT_EPOCH":26738,"BSTAR":0.0012550155,"MEAN_MOTION_DOT":0.00000464,"MEAN_MOTION_DDOT":0},{"OBJECT_NAME":"ONEWEB-0121","OBJECT_ID":"2020-100K","EPOCH":"2026-07-07T10:04:33.038112","CLASSIFICATION_TYPE":"U","MEAN_MOTION":13.12442937,"ECCENTRICITY":0.00015253,"INCLINATION":87.8964,"RA_OF_ASC_NODE":346.6337,"ARG_OF_PERICENTER":92.8894,"MEAN_ANOMALY":267.2409,"EPHEMERIS_TYPE":0,"NORAD_CAT_ID":47267,"ELEMENT_SET_NO":999,"REV_AT_EPOCH":26729,"BSTAR":0.0009358642,"MEAN_MOTION_DOT":0.00000349,"MEAN_MOTION_DDOT":0},{"OBJECT_NAME":"ONEWEB-0122","OBJECT_ID":"2020-100L","EPOCH":"2026-07-07T19:04:54.721056","CLASSIFICATION_TYPE":"U","MEAN_MOTION":13.12445399,"ECCENTRICITY":0.0001927,"INCLINATION":87.8966,"RA_OF_ASC_NODE":346.564,"ARG_OF_PERICENTER":99.5681,"MEAN_ANOMALY":260.5665,"EPHEMERIS_TYPE":0,"NORAD_CAT_ID":47268,"ELEMENT_SET_NO":999,"REV_AT_EPOCH":26725,"BSTAR":0.00023882,"MEAN_MOTION_DOT":9.9e-7,"MEAN_MOTION_DDOT":0},{"OBJECT_NAME":"ONEWEB-0123","OBJECT_ID":"2020-100M","EPOCH":"2026-07-07T09:49:54.570432","CLASSIFICATION_TYPE":"U","MEAN_MOTION":13.12443182,"ECCENTRICITY":0.00018963,"INCLINATION":87.8953,"RA_OF_ASC_NODE":346.6455,"ARG_OF_PERICENTER":91.7469,"MEAN_ANOMALY":268.3877,"EPHEMERIS_TYPE":0,"NORAD_CAT_ID":47269,"ELEMENT_SET_NO":999,"REV_AT_EPOCH":26734,"BSTAR":0.000050554166,"MEAN_MOTION_DOT":3.1e-7,"MEAN_MOTION_DDOT":0},{"OBJECT_NAME":"ONEWEB-0124","OBJECT_ID":"2020-100N","EPOCH":"2026-07-07T09:35:16.074240","CLASSIFICATION_TYPE":"U","MEAN_MOTION":13.12443167,"ECCENTRICITY":0.00017353,"INCLINATION":87.8952,"RA_OF_ASC_NODE":346.6502,"ARG_OF_PERICENTER":92.8874,"MEAN_ANOMALY":267.2454,"EPHEMERIS_TYPE":0,"NORAD_CAT_ID":47270,"ELEMENT_SET_NO":999,"REV_AT_EPOCH":26722,"BSTAR":-0.00081473228,"MEAN_MOTION_DOT":-0.0000028,"MEAN_MOTION_DDOT":0},{"OBJECT_NAME":"ONEWEB-0125","OBJECT_ID":"2020-100P","EPOCH":"2026-07-07T09:03:33.315552","CLASSIFICATION_TYPE":"U","MEAN_MOTION":13.12441649,"ECCENTRICITY":0.00016823,"INCLINATION":87.8964,"RA_OF_ASC_NODE":346.6402,"ARG_OF_PERICENTER":85.8789,"MEAN_ANOMALY":274.2532,"EPHEMERIS_TYPE":0,"NORAD_CAT_ID":47271,"ELEMENT_SET_NO":999,"REV_AT_EPOCH":26728,"BSTAR":-0.00049143418,"MEAN_MOTION_DOT":-0.00000164,"MEAN_MOTION_DDOT":0},{"OBJECT_NAME":"ONEWEB-0126","OBJECT_ID":"2020-100Q","EPOCH":"2026-07-07T09:33:02.486880","CLASSIFICATION_TYPE":"U","MEAN_MOTION":13.12442758,"ECCENTRICITY":0.00019672,"INCLINATION":87.8956,"RA_OF_ASC_NODE":346.6506,"ARG_OF_PERICENTER":94.8422,"MEAN_ANOMALY":265.2931,"EPHEMERIS_TYPE":0,"NORAD_CAT_ID":47272,"ELEMENT_SET_NO":999,"REV_AT_EPOCH":26735,"BSTAR":-0.000874853,"MEAN_MOTION_DOT":-0.00000302,"MEAN_MOTION_DDOT":0},{"OBJECT_NAME":"ONEWEB-0127","OBJECT_ID":"2020-100R","EPOCH":"2026-07-07T08:44:03.012864","CLASSIFICATION_TYPE":"U","MEAN_MOTION":13.12441941,"ECCENTRICITY":0.00019646,"INCLINATION":87.8951,"RA_OF_ASC_NODE":346.655,"ARG_OF_PERICENTER":95.9876,"MEAN_ANOMALY":264.1477,"EPHEMERIS_TYPE":0,"NORAD_CAT_ID":47273,"ELEMENT_SET_NO":999,"REV_AT_EPOCH":26737,"BSTAR":0.00086005824,"MEAN_MOTION_DOT":0.00000322,"MEAN_MOTION_DDOT":0},{"OBJECT_NAME":"ONEWEB-0128","OBJECT_ID":"2020-100S","EPOCH":"2026-07-07T09:15:45.153792","CLASSIFICATION_TYPE":"U","MEAN_MOTION":13.12442057,"ECCENTRICITY":0.00016402,"INCLINATION":87.895,"RA_OF_ASC_NODE":346.6644,"ARG_OF_PERICENTER":102.9514,"MEAN_ANOMALY":257.1798,"EPHEMERIS_TYPE":0,"NORAD_CAT_ID":47274,"ELEMENT_SET_NO":999,"REV_AT_EPOCH":26739,"BSTAR":-0.0010559225,"MEAN_MOTION_DOT":-0.00000367,"MEAN_MOTION_DDOT":0},{"OBJECT_NAME":"ONEWEB-0129","OBJECT_ID":"2020-100T","EPOCH":"2026-07-07T08:46:29.056512","CLASSIFICATION_TYPE":"U","MEAN_MOTION":13.12440941,"ECCENTRICITY":0.00029249,"INCLINATION":87.8963,"RA_OF_ASC_NODE":346.6441,"ARG_OF_PERICENTER":99.5098,"MEAN_ANOMALY":260.6361,"EPHEMERIS_TYPE":0,"NORAD_CAT_ID":47275,"ELEMENT_SET_NO":999,"REV_AT_EPOCH":26732,"BSTAR":0.00064536705,"MEAN_MOTION_DOT":0.00000245,"MEAN_MOTION_DDOT":0},{"OBJECT_NAME":"ONEWEB-0130","OBJECT_ID":"2020-100U","EPOCH":"2026-07-06T22:26:49.491456","CLASSIFICATION_TYPE":"U","MEAN_MOTION":13.12442786,"ECCENTRICITY":0.00018746,"INCLINATION":87.8959,"RA_OF_ASC_NODE":346.726,"ARG_OF_PERICENTER":98.0001,"MEAN_ANOMALY":262.134,"EPHEMERIS_TYPE":0,"NORAD_CAT_ID":47276,"ELEMENT_SET_NO":999,"REV_AT_EPOCH":26723,"BSTAR":-0.0010505219,"MEAN_MOTION_DOT":-0.00000365,"MEAN_MOTION_DDOT":0},{"OBJECT_NAME":"ONEWEB-0131","OBJECT_ID":"2020-100V","EPOCH":"2026-07-07T09:20:38.095584","CLASSIFICATION_TYPE":"U","MEAN_MOTION":13.12441798,"ECCENTRICITY":0.00017585,"INCLINATION":87.8953,"RA_OF_ASC_NODE":346.6514,"ARG_OF_PERICENTER":99.8954,"MEAN_ANOMALY":260.2373,"EPHEMERIS_TYPE":0,"NORAD_CAT_ID":47277,"ELEMENT_SET_NO":999,"REV_AT_EPOCH":26733,"BSTAR":-0.0010638857,"MEAN_MOTION_DOT":-0.0000037,"MEAN_MOTION_DDOT":0},{"OBJECT_NAME":"ONEWEB-0132","OBJECT_ID":"2020-100W","EPOCH":"2026-07-07T10:02:06.660096","CLASSIFICATION_TYPE":"U","MEAN_MOTION":13.12442905,"ECCENTRICITY":0.00017914,"INCLINATION":87.8956,"RA_OF_ASC_NODE":346.6479,"ARG_OF_PERICENTER":96.2045,"MEAN_ANOMALY":263.9288,"EPHEMERIS_TYPE":0,"NORAD_CAT_ID":47278,"ELEMENT_SET_NO":999,"REV_AT_EPOCH":26723,"BSTAR":0.00077654578,"MEAN_MOTION_DOT":0.00000292,"MEAN_MOTION_DDOT":0},{"OBJECT_NAME":"ONEWEB-0133","OBJECT_ID":"2020-100X","EPOCH":"2026-07-07T10:26:18.559392","CLASSIFICATION_TYPE":"U","MEAN_MOTION":13.12442712,"ECCENTRICITY":0.00017009,"INCLINATION":87.8969,"RA_OF_ASC_NODE":346.6227,"ARG_OF_PERICENTER":96.5281,"MEAN_ANOMALY":263.6041,"EPHEMERIS_TYPE":0,"NORAD_CAT_ID":47279,"ELEMENT_SET_NO":999,"REV_AT_EPOCH":26739,"BSTAR":0.001055774,"MEAN_MOTION_DOT":0.00000393,"MEAN_MOTION_DDOT":0},{"OBJECT_NAME":"ONEWEB-0134","OBJECT_ID":"2020-100Y","EPOCH":"2026-07-07T13:22:08.934240","CLASSIFICATION_TYPE":"U","MEAN_MOTION":13.12443251,"ECCENTRICITY":0.0001967,"INCLINATION":87.8965,"RA_OF_ASC_NODE":346.5959,"ARG_OF_PERICENTER":102.3548,"MEAN_ANOMALY":257.78,"EPHEMERIS_TYPE":0,"NORAD_CAT_ID":47280,"ELEMENT_SET_NO":999,"REV_AT_EPOCH":26738,"BSTAR":-0.00039735,"MEAN_MOTION_DOT":-0.0000013,"MEAN_MOTION_DDOT":0},{"OBJECT_NAME":"ONEWEB-0135","OBJECT_ID":"2020-100Z","EPOCH":"2026-07-07T09:01:06.934080","CLASSIFICATION_TYPE":"U","MEAN_MOTION":13.12441871,"ECCENTRICITY":0.00018745,"INCLINATION":87.8953,"RA_OF_ASC_NODE":346.6521,"ARG_OF_PERICENTER":105.0338,"MEAN_ANOMALY":255.0999,"EPHEMERIS_TYPE":0,"NORAD_CAT_ID":47281,"ELEMENT_SET_NO":999,"REV_AT_EPOCH":26738,"BSTAR":-0.00020841087,"MEAN_MOTION_DOT":-6.2e-7,"MEAN_MOTION_DDOT":0}]}
